{"type": "FeatureCollection", "features": [ {"type": "Feature", "properties": {"norad_id": 66520, "name": "STARLINK-35952", "group": "last-30-days", "lat": 27.647872660610922, "lon": -131.14152833685012, "alt_km": 384.3357568034553, "timestamp": "2025-12-07T18:50:15.514098+00:00", "meta": {"OBJECT_NAME": "STARLINK-35952", "OBJECT_ID": "2025-265E", "EPOCH": "2025-12-07T06:00:04.999968", "MEAN_MOTION": 15.6224043, "ECCENTRICITY": 0.00015707, "INCLINATION": 43.0002, "RA_OF_ASC_NODE": 86.2428, "ARG_OF_PERICENTER": 276.6302, "MEAN_ANOMALY": 90.9949, "EPHEMERIS_TYPE": 0, "CLASSIFICATION_TYPE": "U", "NORAD_CAT_ID": 66520, "ELEMENT_SET_NO": 999, "REV_AT_EPOCH": 411, "BSTAR": -0.024332442, "MEAN_MOTION_DOT": -0.0194434, "MEAN_MOTION_DDOT": 0}, "tle": {"line1": "1 66520U 25265E   25341.25005787 -.01944340  00000+0 -24332-1 0  9999", "line2": "2 66520  43.0002  86.2428 0001570 276.6302  90.9949 15.62240430  4112"}}, "geometry": {"type": "Point", "coordinates": [-131.14152833685012, 27.647872660610922]}}, {"type": "Feature", "properties": {"norad_id": 66521, "name": "STARLINK-35915", "group": "last-30-days", "lat": 26.555858613078033, "lon": -129.37582536483475, "alt_km": 384.50651584943716, "timestamp": "2025-12-07T18:50:15.514110+00:00", "meta": {"OBJECT_NAME": "STARLINK-35915", "OBJECT_ID": "2025-265F", "EPOCH": "2025-12-07T06:00:04.999968", "MEAN_MOTION": 15.62253252, "ECCENTRICITY": 0.00015489, "INCLINATION": 43.0003, "RA_OF_ASC_NODE": 86.2385, "ARG_OF_PERICENTER": 278.0554, "MEAN_ANOMALY": 91.4755, "EPHEMERIS_TYPE": 0, "CLASSIFICATION_TYPE": "U", "NORAD_CAT_ID": 66521, "ELEMENT_SET_NO": 999, "REV_AT_EPOCH": 411, "BSTAR": -0.024496184, "MEAN_MOTION_DOT": -0.0195671, "MEAN_MOTION_DDOT": 0}, "tle": {"line1": "1 66521U 25265F   25341.25005787 -.01956710  00000+0 -24496-1 0  9995", "line2": "2 66521  43.0003  86.2385 0001548 278.0554  91.4755 15.62253252  4113"}}, "geometry": {"type": "Point", "coordinates": [-129.37582536483475, 26.555858613078033]}}, {"type": "Feature", "properties": {"norad_id": 66522, "name": "STARLINK-35946", "group": "last-30-days", "lat": 25.44164897046362, "lon": -127.6435903939263, "alt_km": 384.7051125612061, "timestamp": "2025-12-07T18:50:15.514125+00:00", "meta": {"OBJECT_NAME": "STARLINK-35946", "OBJECT_ID": "2025-265G", "EPOCH": "2025-12-07T06:00:04.999968", "MEAN_MOTION": 15.62252275, "ECCENTRICITY": 0.00015967, "INCLINATION": 43, "RA_OF_ASC_NODE": 86.2338, "ARG_OF_PERICENTER": 278.9807, "MEAN_ANOMALY": 92.469, "EPHEMERIS_TYPE": 0, "CLASSIFICATION_TYPE": "U", "NORAD_CAT_ID": 66522, "ELEMENT_SET_NO": 999, "REV_AT_EPOCH": 411, "BSTAR": -0.024499841, "MEAN_MOTION_DOT": -0.01956936, "MEAN_MOTION_DDOT": 0}, "tle": {"line1": "1 66522U 25265G   25341.25005787 -.01956936  00000+0 -24500-1 0  9992", "line2": "2 66522  43.0000  86.2338 0001596 278.9807  92.4690 15.62252275  4115"}}, "geometry": {"type": "Point", "coordinates": [-127.6435903939263, 25.44164897046362]}}, {"type": "Feature", "properties": {"norad_id": 66523, "name": "STARLINK-35969", "group": "last-30-days", "lat": 24.307233587271522, "lon": -125.94286714594573, "alt_km": 384.79396361469117, "timestamp": "2025-12-07T18:50:15.514136+00:00", "meta": {"OBJECT_NAME": "STARLINK-35969", "OBJECT_ID": "2025-265H", "EPOCH": "2025-12-07T06:00:04.999968", "MEAN_MOTION": 15.62253136, "ECCENTRICITY": 0.00015653, "INCLINATION": 43.0001, "RA_OF_ASC_NODE": 86.229, "ARG_OF_PERICENTER": 276.4599, "MEAN_ANOMALY": 96.9059, "EPHEMERIS_TYPE": 0, "CLASSIFICATION_TYPE": "U", "NORAD_CAT_ID": 66523, "ELEMENT_SET_NO": 999, "REV_AT_EPOCH": 411, "BSTAR": -0.024495967, "MEAN_MOTION_DOT": -0.01956699, "MEAN_MOTION_DDOT": 0}, "tle": {"line1": "1 66523U 25265H   25341.25005787 -.01956699  00000+0 -24496-1 0  9993", "line2": "2 66523  43.0001  86.2290 0001565 276.4599  96.9059 15.62253136  4116"}}, "geometry": {"type": "Point", "coordinates": [-125.94286714594573, 24.307233587271522]}}, {"type": "Feature", "properties": {"norad_id": 66524, "name": "STARLINK-35687", "group": "last-30-days", "lat": 23.153848378375933, "lon": -124.27285210123603, "alt_km": 384.89495963515856, "timestamp": "2025-12-07T18:50:15.514146+00:00", "meta": {"OBJECT_NAME": "STARLINK-35687", "OBJECT_ID": "2025-265J", "EPOCH": "2025-12-07T06:00:04.999968", "MEAN_MOTION": 15.62250118, "ECCENTRICITY": 0.00015091, "INCLINATION": 43.0001, "RA_OF_ASC_NODE": 86.2237, "ARG_OF_PERICENTER": 275.1043, "MEAN_ANOMALY": 100.1822, "EPHEMERIS_TYPE": 0, "CLASSIFICATION_TYPE": "U", "NORAD_CAT_ID": 66524, "ELEMENT_SET_NO": 999, "REV_AT_EPOCH": 411, "BSTAR": -0.024466652, "MEAN_MOTION_DOT": -0.01954392, "MEAN_MOTION_DDOT": 0}, "tle": {"line1": "1 66524U 25265J   25341.25005787 -.01954392  00000+0 -24467-1 0  9990", "line2": "2 66524  43.0001  86.2237 0001509 275.1043 100.1822 15.62250118  4119"}}, "geometry": {"type": "Point", "coordinates": [-124.27285210123603, 23.153848378375933]}}, {"type": "Feature", "properties": {"norad_id": 66525, "name": "STARLINK-35975", "group": "last-30-days", "lat": 21.983473642513477, "lon": -122.63122934610215, "alt_km": 385.11951579683046, "timestamp": "2025-12-07T18:50:15.514156+00:00", "meta": {"OBJECT_NAME": "STARLINK-35975", "OBJECT_ID": "2025-265K", "EPOCH": "2025-12-07T06:00:04.999968", "MEAN_MOTION": 15.62248153, "ECCENTRICITY": 0.00015609, "INCLINATION": 43.0003, "RA_OF_ASC_NODE": 86.2192, "ARG_OF_PERICENTER": 277.645, "MEAN_ANOMALY": 99.5582, "EPHEMERIS_TYPE": 0, "CLASSIFICATION_TYPE": "U", "NORAD_CAT_ID": 66525, "ELEMENT_SET_NO": 999, "REV_AT_EPOCH": 411, "BSTAR": -0.024423966, "MEAN_MOTION_DOT": -0.01951295, "MEAN_MOTION_DDOT": 0}, "tle": {"line1": "1 66525U 25265K   25341.25005787 -.01951295  00000+0 -24424-1 0  9993", "line2": "2 66525  43.0003  86.2192 0001560 277.6450  99.5582 15.62248153  4118"}}, "geometry": {"type": "Point", "coordinates": [-122.63122934610215, 21.983473642513477]}}, {"type": "Feature", "properties": {"norad_id": 66526, "name": "STARLINK-35932", "group": "last-30-days", "lat": 20.797390226648364, "lon": -121.01780609219465, "alt_km": 385.30508328568067, "timestamp": "2025-12-07T18:50:15.514166+00:00", "meta": {"OBJECT_NAME": "STARLINK-35932", "OBJECT_ID": "2025-265L", "EPOCH": "2025-12-07T06:00:04.999968", "MEAN_MOTION": 15.62251528, "ECCENTRICITY": 0.0001561, "INCLINATION": 43.0002, "RA_OF_ASC_NODE": 86.2145, "ARG_OF_PERICENTER": 278.5511, "MEAN_ANOMALY": 100.5682, "EPHEMERIS_TYPE": 0, "CLASSIFICATION_TYPE": "U", "NORAD_CAT_ID": 66526, "ELEMENT_SET_NO": 999, "REV_AT_EPOCH": 400, "BSTAR": -0.024494558, "MEAN_MOTION_DOT": -0.01956487, "MEAN_MOTION_DDOT": 0}, "tle": {"line1": "1 66526U 25265L   25341.25005787 -.01956487  00000+0 -24495-1 0  9990", "line2": "2 66526  43.0002  86.2145 0001561 278.5511 100.5682 15.62251528  4007"}}, "geometry": {"type": "Point", "coordinates": [-121.01780609219465, 20.797390226648364]}}, {"type": "Feature", "properties": {"norad_id": 66527, "name": "STARLINK-35935", "group": "last-30-days", "lat": 19.59579402430554, "lon": -119.42864126495986, "alt_km": 385.4155912175438, "timestamp": "2025-12-07T18:50:15.514177+00:00", "meta": {"OBJECT_NAME": "STARLINK-35935", "OBJECT_ID": "2025-265M", "EPOCH": "2025-12-07T06:00:04.999968", "MEAN_MOTION": 15.62251209, "ECCENTRICITY": 0.00015118, "INCLINATION": 43.0003, "RA_OF_ASC_NODE": 86.21, "ARG_OF_PERICENTER": 277.4229, "MEAN_ANOMALY": 103.6136, "EPHEMERIS_TYPE": 0, "CLASSIFICATION_TYPE": "U", "NORAD_CAT_ID": 66527, "ELEMENT_SET_NO": 999, "REV_AT_EPOCH": 411, "BSTAR": -0.024486093, "MEAN_MOTION_DOT": -0.01955834, "MEAN_MOTION_DDOT": 0}, "tle": {"line1": "1 66527U 25265M   25341.25005787 -.01955834  00000+0 -24486-1 0  9996", "line2": "2 66527  43.0003  86.2100 0001511 277.4229 103.6136 15.62251209  4115"}}, "geometry": {"type": "Point", "coordinates": [-119.42864126495986, 19.59579402430554]}}, {"type": "Feature", "properties": {"norad_id": 66528, "name": "STARLINK-35928", "group": "last-30-days", "lat": 18.380324587081656, "lon": -117.8631994973795, "alt_km": 385.53607531531634, "timestamp": "2025-12-07T18:50:15.514188+00:00", "meta": {"OBJECT_NAME": "STARLINK-35928", "OBJECT_ID": "2025-265N", "EPOCH": "2025-12-07T06:00:04.999968", "MEAN_MOTION": 15.62250372, "ECCENTRICITY": 0.00014879, "INCLINATION": 43.0007, "RA_OF_ASC_NODE": 86.2052, "ARG_OF_PERICENTER": 276.3193, "MEAN_ANOMALY": 106.6345, "EPHEMERIS_TYPE": 0, "CLASSIFICATION_TYPE": "U", "NORAD_CAT_ID": 66528, "ELEMENT_SET_NO": 999, "REV_AT_EPOCH": 411, "BSTAR": -0.024461408, "MEAN_MOTION_DOT": -0.01954025, "MEAN_MOTION_DDOT": 0}, "tle": {"line1": "1 66528U 25265N   25341.25005787 -.01954025  00000+0 -24461-1 0  9991", "line2": "2 66528  43.0007  86.2052 0001487 276.3193 106.6345 15.62250372  4111"}}, "geometry": {"type": "Point", "coordinates": [-117.8631994973795, 18.380324587081656]}}, {"type": "Feature", "properties": {"norad_id": 66529, "name": "STARLINK-35933", "group": "last-30-days", "lat": 17.15290978618255, "lon": -116.32155598275347, "alt_km": 385.7978234635666, "timestamp": "2025-12-07T18:50:15.514199+00:00", "meta": {"OBJECT_NAME": "STARLINK-35933", "OBJECT_ID": "2025-265P", "EPOCH": "2025-12-07T06:00:04.999968", "MEAN_MOTION": 15.62251336, "ECCENTRICITY": 0.00015714, "INCLINATION": 43.0008, "RA_OF_ASC_NODE": 86.1999, "ARG_OF_PERICENTER": 279.5919, "MEAN_ANOMALY": 105.2765, "EPHEMERIS_TYPE": 0, "CLASSIFICATION_TYPE": "U", "NORAD_CAT_ID": 66529, "ELEMENT_SET_NO": 999, "REV_AT_EPOCH": 411, "BSTAR": -0.024461203, "MEAN_MOTION_DOT": -0.01954136, "MEAN_MOTION_DDOT": 0}, "tle": {"line1": "1 66529U 25265P   25341.25005787 -.01954136  00000+0 -24461-1 0  9995", "line2": "2 66529  43.0008  86.1999 0001571 279.5919 105.2765 15.62251336  4119"}}, "geometry": {"type": "Point", "coordinates": [-116.32155598275347, 17.15290978618255]}}]}